[{"OBJECT_NAME":"SPHINX\/FRAZIER","OBJECT_ID":"2025-052Y","EPOCH":"2026-03-09T16:24:33.293952","MEAN_MOTION":15.2264428,"ECCENTRICITY":0.00072416,"INCLINATION":97.4068,"RA_OF_ASC_NODE":323.0895,"ARG_OF_PERICENTER":127.8815,"MEAN_ANOMALY":232.3077,"EPHEMERIS_TYPE":0,"CLASSIFICATION_TYPE":"U","NORAD_CAT_ID":63232,"ELEMENT_SET_NO":999,"REV_AT_EPOCH":5472,"BSTAR":0.00035501675,"MEAN_MOTION_DOT":8.199e-5,"MEAN_MOTION_DDOT":0},{"OBJECT_NAME":"ZIYUAN 3-04 (ZY 3-04)","OBJECT_ID":"2025-300A","EPOCH":"2026-03-09T21:46:53.524416","MEAN_MOTION":15.21435869,"ECCENTRICITY":0.00046089,"INCLINATION":97.4787,"RA_OF_ASC_NODE":147.5221,"ARG_OF_PERICENTER":299.6571,"MEAN_ANOMALY":60.4205,"EPHEMERIS_TYPE":0,"CLASSIFICATION_TYPE":"U","NORAD_CAT_ID":67131,"ELEMENT_SET_NO":999,"REV_AT_EPOCH":1274,"BSTAR":0.00028410959,"MEAN_MOTION_DOT":6.313e-5,"MEAN_MOTION_DDOT":0}]
